{
  "type": "FeatureCollection",
  "features": [
    {
      "type": "Feature",
      "properties": {
        "norad_id": 66828,
        "name": "STARLINK-35982",
        "group": "last-30-days",
        "lat": 67.31960794731748,
        "lon": -134.16821119102642,
        "alt_km": 404.0831193626591,
        "timestamp": "2025-12-24T20:42:19.746268+00:00",
        "meta_object_name": "STARLINK-35982",
        "meta_object_id": "2025-280H",
        "meta_epoch": "2025-12-24T06:26:59.313120",
        "meta_mean_motion": 15.52556813,
        "meta_eccentricity": 0.00034789,
        "meta_inclination": 70.0004,
        "meta_ra_of_asc_node": 166.8199,
        "meta_arg_of_pericenter": 274.0348,
        "meta_mean_anomaly": 86.0441,
        "meta_ephemeris_type": 0,
        "meta_classification_type": "U",
        "meta_norad_cat_id": 66828,
        "meta_element_set_no": 999,
        "meta_rev_at_epoch": 472,
        "meta_bstar": 0.001436854,
        "meta_mean_motion_dot": 0.00089352,
        "meta_mean_motion_ddot": 0,
        "tle_line1": "1 66828U 25280H   25358.26874205  .00089352  00000+0  14369-2 0  9995",
        "tle_line2": "2 66828  70.0004 166.8199 0003478 274.0348  86.0441 15.52556813  4720"
      },
      "geometry": {
        "type": "Point",
        "coordinates": [
          -134.16821119102642,
          67.31960794731748
        ]
      }
    },
    {
      "type": "Feature",
      "properties": {
        "norad_id": 66829,
        "name": "STARLINK-36084",
        "group": "last-30-days",
        "lat": 66.35519519779588,
        "lon": -138.51061285460972,
        "alt_km": 404.2260587833198,
        "timestamp": "2025-12-24T20:42:19.746279+00:00",
        "meta_object_name": "STARLINK-36084",
        "meta_object_id": "2025-280J",
        "meta_epoch": "2025-12-24T06:27:28.919808",
        "meta_mean_motion": 15.52550052,
        "meta_eccentricity": 0.00033981,
        "meta_inclination": 70.0005,
        "meta_ra_of_asc_node": 166.8208,
        "meta_arg_of_pericenter": 270.7103,
        "meta_mean_anomaly": 89.3694,
        "meta_ephemeris_type": 0,
        "meta_classification_type": "U",
        "meta_norad_cat_id": 66829,
        "meta_element_set_no": 999,
        "meta_rev_at_epoch": 472,
        "meta_bstar": 0.0010751032,
        "meta_mean_motion_dot": 0.00066605,
        "meta_mean_motion_ddot": 0,
        "tle_line1": "1 66829U 25280J   25358.26908472  .00066605  00000+0  10751-2 0  9997",
        "tle_line2": "2 66829  70.0005 166.8208 0003398 270.7103  89.3694 15.52550052  4721"
      },
      "geometry": {
        "type": "Point",
        "coordinates": [
          -138.51061285460972,
          66.35519519779588
        ]
      }
    },
    {
      "type": "Feature",
      "properties": {
        "norad_id": 66830,
        "name": "STARLINK-35881",
        "group": "last-30-days",
        "lat": 68.16506992213552,
        "lon": -129.44094445153064,
        "alt_km": 403.88428517909233,
        "timestamp": "2025-12-24T20:42:19.746291+00:00",
        "meta_object_name": "STARLINK-35881",
        "meta_object_id": "2025-280K",
        "meta_epoch": "2025-12-24T06:26:29.670144",
        "meta_mean_motion": 15.5256786,
        "meta_eccentricity": 0.0003434,
        "meta_inclination": 70.0006,
        "meta_ra_of_asc_node": 166.8181,
        "meta_arg_of_pericenter": 271.0875,
        "meta_mean_anomaly": 88.9918,
        "meta_ephemeris_type": 0,
        "meta_classification_type": "U",
        "meta_norad_cat_id": 66830,
        "meta_element_set_no": 999,
        "meta_rev_at_epoch": 472,
        "meta_bstar": 0.0019328837,
        "meta_mean_motion_dot": 0.00120782,
        "meta_mean_motion_ddot": 0,
        "tle_line1": "1 66830U 25280K   25358.26839896  .00120782  00000+0  19329-2 0  9999",
        "tle_line2": "2 66830  70.0006 166.8181 0003434 271.0875  88.9918 15.52567860  4724"
      },
      "geometry": {
        "type": "Point",
        "coordinates": [
          -129.44094445153064,
          68.16506992213552
        ]
      }
    },
    {
      "type": "Feature",
      "properties": {
        "norad_id": 66831,
        "name": "STARLINK-35788",
        "group": "last-30-days",
        "lat": 68.83954734399563,
        "lon": -124.59786604834753,
        "alt_km": 403.6269122653339,
        "timestamp": "2025-12-24T20:42:19.746301+00:00",
        "meta_object_name": "STARLINK-35788",
        "meta_object_id": "2025-280L",
        "meta_epoch": "2025-12-24T06:26:00.145536",
        "meta_mean_motion": 15.5256342,
        "meta_eccentricity": 0.00032192,
        "meta_inclination": 70.0003,
        "meta_ra_of_asc_node": 166.8179,
        "meta_arg_of_pericenter": 284.3113,
        "meta_mean_anomaly": 75.7717,
        "meta_ephemeris_type": 0,
        "meta_classification_type": "U",
        "meta_norad_cat_id": 66831,
        "meta_element_set_no": 999,
        "meta_rev_at_epoch": 472,
        "meta_bstar": 0.0017361388,
        "meta_mean_motion_dot": 0.00108279,
        "meta_mean_motion_ddot": 0,
        "tle_line1": "1 66831U 25280L   25358.26805724  .00108279  00000+0  17361-2 0  9994",
        "tle_line2": "2 66831  70.0003 166.8179 0003219 284.3113  75.7717 15.52563420  4721"
      },
      "geometry": {
        "type": "Point",
        "coordinates": [
          -124.59786604834753,
          68.83954734399563
        ]
      }
    },
    {
      "type": "Feature",
      "properties": {
        "norad_id": 66832,
        "name": "STARLINK-35768",
        "group": "last-30-days",
        "lat": 69.36551856348109,
        "lon": -119.52286622906932,
        "alt_km": 403.9668535743622,
        "timestamp": "2025-12-24T20:42:19.746311+00:00",
        "meta_object_name": "STARLINK-35768",
        "meta_object_id": "2025-280M",
        "meta_epoch": "2025-12-24T06:25:30.395424",
        "meta_mean_motion": 15.52555048,
        "meta_eccentricity": 0.00035282,
        "meta_inclination": 70.0005,
        "meta_ra_of_asc_node": 166.8154,
        "meta_arg_of_pericenter": 271.7402,
        "meta_mean_anomaly": 88.3381,
        "meta_ephemeris_type": 0,
        "meta_classification_type": "U",
        "meta_norad_cat_id": 66832,
        "meta_element_set_no": 999,
        "meta_rev_at_epoch": 472,
        "meta_bstar": 0.0016011563,
        "meta_mean_motion_dot": 0.00099713,
        "meta_mean_motion_ddot": 0,
        "tle_line1": "1 66832U 25280M   25358.26771291  .00099713  00000+0  16012-2 0  9990",
        "tle_line2": "2 66832  70.0005 166.8154 0003528 271.7402  88.3381 15.52555048  4725"
      },
      "geometry": {
        "type": "Point",
        "coordinates": [
          -119.52286622906932,
          69.36551856348109
        ]
      }
    },
    {
      "type": "Feature",
      "properties": {
        "norad_id": 66833,
        "name": "STARLINK-35858",
        "group": "last-30-days",
        "lat": 69.73890288466637,
        "lon": -114.17681878359946,
        "alt_km": 403.9113289912857,
        "timestamp": "2025-12-24T20:42:19.746320+00:00",
        "meta_object_name": "STARLINK-35858",
        "meta_object_id": "2025-280N",
        "meta_epoch": "2025-12-24T06:25:00.756768",
        "meta_mean_motion": 15.52553729,
        "meta_eccentricity": 0.00034286,
        "meta_inclination": 70.0004,
        "meta_ra_of_asc_node": 166.8146,
        "meta_arg_of_pericenter": 272.3735,
        "meta_mean_anomaly": 87.7059,
        "meta_ephemeris_type": 0,
        "meta_classification_type": "U",
        "meta_norad_cat_id": 66833,
        "meta_element_set_no": 999,
        "meta_rev_at_epoch": 472,
        "meta_bstar": 0.0014342956,
        "meta_mean_motion_dot": 0.0008918,
        "meta_mean_motion_ddot": 0,
        "tle_line1": "1 66833U 25280N   25358.26736987  .00089180  00000+0  14343-2 0  9996",
        "tle_line2": "2 66833  70.0004 166.8146 0003428 272.3735  87.7059 15.52553729  4720"
      },
      "geometry": {
        "type": "Point",
        "coordinates": [
          -114.17681878359946,
          69.73890288466637
        ]
      }
    },
    {
      "type": "Feature",
      "properties": {
        "norad_id": 66834,
        "name": "STARLINK-35840",
        "group": "last-30-days",
        "lat": 69.94289577895127,
        "lon": -108.79677946937227,
        "alt_km": 403.9890629556912,
        "timestamp": "2025-12-24T20:42:19.746330+00:00",
        "meta_object_name": "STARLINK-35840",
        "meta_object_id": "2025-280P",
        "meta_epoch": "2025-12-24T06:24:31.162176",
        "meta_mean_motion": 15.52546491,
        "meta_eccentricity": 0.00033934,
        "meta_inclination": 70.0006,
        "meta_ra_of_asc_node": 166.8127,
        "meta_arg_of_pericenter": 272.3135,
        "meta_mean_anomaly": 87.7663,
        "meta_ephemeris_type": 0,
        "meta_classification_type": "U",
        "meta_norad_cat_id": 66834,
        "meta_element_set_no": 999,
        "meta_rev_at_epoch": 472,
        "meta_bstar": 0.00098603226,
        "meta_mean_motion_dot": 0.00061022,
        "meta_mean_motion_ddot": 0,
        "tle_line1": "1 66834U 25280P   25358.26702734  .00061022  00000+0  98603-3 0  9997",
        "tle_line2": "2 66834  70.0006 166.8127 0003393 272.3135  87.7663 15.52546491  4726"
      },
      "geometry": {
        "type": "Point",
        "coordinates": [
          -108.79677946937227,
          69.94289577895127
        ]
      }
    }
  ]
}